[{"OBJECT_NAME":"STARLINK-5728","OBJECT_ID":"2023-020V","EPOCH":"2026-03-09T22:00:01.999584","MEAN_MOTION":15.12999401,"ECCENTRICITY":0.00012068,"INCLINATION":43.0006,"RA_OF_ASC_NODE":2.7584,"ARG_OF_PERICENTER":279.492,"MEAN_ANOMALY":348.9005,"EPHEMERIS_TYPE":0,"CLASSIFICATION_TYPE":"U","NORAD_CAT_ID":55588,"ELEMENT_SET_NO":999,"REV_AT_EPOCH":573,"BSTAR":0.026730069,"MEAN_MOTION_DOT":0.00510293,"MEAN_MOTION_DDOT":0},{"OBJECT_NAME":"OBJECT D","OBJECT_ID":"2026-023D","EPOCH":"2026-03-09T17:19:13.762848","MEAN_MOTION":15.22920595,"ECCENTRICITY":0.00208003,"INCLINATION":96.6418,"RA_OF_ASC_NODE":141.6791,"ARG_OF_PERICENTER":127.3034,"MEAN_ANOMALY":233.0105,"EPHEMERIS_TYPE":0,"CLASSIFICATION_TYPE":"U","NORAD_CAT_ID":67677,"ELEMENT_SET_NO":999,"REV_AT_EPOCH":485,"BSTAR":0.00050428287,"MEAN_MOTION_DOT":0.00011849,"MEAN_MOTION_DDOT":0}]
